LINGQIAO VIDEO A        
1 40959U 15057B   24163.57364973  .00001361  00000+0  20842-3 0  9994
2 40959  97.6663 185.2008 0018624 134.9081 225.3644 14.75091687466861
LINGQIAO VIDEO B        
1 40960U 15057C   24163.53423394  .00001640  00000+0  24884-3 0  9995
2 40960  97.6674 186.3181 0018717 135.2589 225.0134 14.75244944466899
JILIN-1                 
1 40961U 15057D   24163.55014244  .00001917  00000+0  28540-3 0  9998
2 40961  97.6708 189.1791 0018838 132.0485 228.2332 14.75883649467000
FOX-1A (AO-85)          
1 40967U 15058D   24163.11888471  .00004392  00000+0  41704-3 0  9995
2 40967  64.7789  34.1209 0189458 305.7830  52.5792 14.82219178  4095
BISONSAT                
1 40968U 15058E   24163.09890062  .00005136  00000+0  46733-3 0  9996
2 40968  64.7790  27.0087 0184261 304.7659  53.6222 14.84208246  6917
ELEKTRO-L 2             
1 41105U 15074A   24162.96854741 -.00000116  00000+0  00000+0 0  9994
2 41105   4.8273  79.5414 0000709 175.0495 339.4281  1.00272107 31121
TELEOS-1                
1 41169U 15077D   24163.51775374  .00023961  00000+0  74709-3 0  9996
2 41169  14.9785 215.5867 0006866 162.1673 197.8892 15.30861089469984
VELOX-II                
1 41171U 15077F   24163.46665909  .00260893  00000+0  17714-2 0  9994
2 41171  14.9869  98.7778 0003365 298.7942  61.2050 15.72791132470886
DAMPE                   
1 41173U 15078A   24163.56123962  .00002421  00000+0  93551-4 0  9992
2 41173  97.4294 157.1166 0013609 155.1675 205.0221 15.27154496472121
ORBCOMM FM114           
1 41179U 15081A   24163.49294206  .00001569  00000+0  38461-3 0  9994
2 41179  47.0023 235.7994 0000394  62.0063 298.0862 14.56748558450391
ORBCOMM FM110           
1 41182U 15081D   24163.47033235  .00001603  00000+0  39224-3 0  9996
2 41182  47.0014 235.3134 0002990 266.5515  93.5028 14.56743408450261
ORBCOMM FM112           
1 41184U 15081F   24163.02927631  .00002069  00000+0  49641-3 0  9992
2 41184  46.9967 146.3828 0000511 138.4807 221.6117 14.56644056451529
ORBCOMM FM113           
1 41185U 15081G   24163.41809877  .00001915  00000+0  46229-3 0  9995
2 41185  46.9994 144.8237 0000519 192.8054 167.2818 14.56642797451560
ORBCOMM FM108           
1 41187U 15081J   24163.44110852  .00002223  00000+0  53078-3 0  9991
2 41187  47.0053  55.9310 0002019  38.2532 321.8495 14.56638419452718
ORBCOMM FM117           
1 41188U 15081K   24163.40746009  .00002191  00000+0  52338-3 0  9999
2 41188  47.0012  54.9779 0002727  54.2580 305.8558 14.56669295452751
ORBCOMM FM116           
1 41189U 15081L   24163.39612865  .00000765  00000+0  20715-3 0  9999
2 41189  47.0005 144.8469 0001299 165.8707 194.2214 14.56640126451561
CHUBUSAT-2              
1 41338U 16012B   24163.12696593  .00008033  00000+0  49918-3 0  9993
2 41338  31.0025  69.8173 0011105 177.8113 182.2574 15.08276237456681
CHUBUSAT-3              
1 41339U 16012C   24163.13396689  .00006670  00000+0  42011-3 0  9990
2 41339  31.0084  68.2164 0011173 182.5628 177.4953 15.07703350456574
HORYU-4                 
1 41340U 16012D   24163.28034629  .00015517  00000+0  77306-3 0  9996
2 41340  31.0034  14.1031 0010042 277.2555  82.6943 15.16329145457257
ZIYUAN 3-2 (ZY 3-2)     
1 41556U 16033A   24163.56577185  .00012560  00000+0  56531-3 0  9990
2 41556  97.4553 238.9879 0001442 182.3608 177.7621 15.21225676446148
CARTOSAT-2C             
1 41599U 16040A   24163.55668840  .00009303  00000+0  44342-3 0  9991
2 41599  97.4737 222.6757 0014402 174.8768 185.2616 15.19238115442027
LAPAN-A3                
1 41603U 16040E   24163.53419325  .00004765  00000+0  19188-3 0  9994
2 41603  97.1418 177.5102 0013813 118.1017 242.1620 15.25229108442365
BIROS                   
1 41604U 16040F   24163.54062199  .00015890  00000+0  42126-3 0  9998
2 41604  97.1223 192.1630 0010338  73.6950 286.5432 15.38351442443319
M3MSAT                  
1 41605U 16040G   24163.53984596  .00019332  00000+0  52389-3 0  9999
2 41605  97.1219 189.3713 0010910  89.9582 270.2914 15.37625621443139
GAOFEN-3                
1 41727U 16049A   24163.53717897  .00000179  00000+0  67373-4 0  9990
2 41727  98.4041 171.2868 0001114  90.6259 269.5059 14.42213372412619
QSS (MOZI)              
1 41731U 16051A   24163.58838390  .00012213  00000+0  33128-3 0  9997
2 41731  97.3099  75.5357 0007962 237.3931 122.6545 15.37733777435837
PRATHAM                 
1 41783U 16059A   24163.59828349  .00001732  00000+0  32985-3 0  9990
2 41783  97.8360 183.1975 0033436  40.6062 319.7627 14.64896048411729
ALSAT 1N                
1 41789U 16059G   24163.54718893  .00002058  00000+0  37728-3 0  9995
2 41789  97.8278 189.2109 0027585  19.3750 340.8497 14.66551851412064
CAS-2T & KS-1Q          
1 41847U 16066G   24163.54547380  .00002957  00000+0  43944-3 0  9994
2 41847  98.4600 234.8872 0353961 194.1790 164.9262 14.41239536398687
YUNHAI-1 01             
1 41857U 16068A   24163.59741661  .00000664  00000+0  25859-3 0  9998
2 41857  98.5913 169.7427 0007767  36.8360 323.3356 14.33031931396484
RESOURCESAT-2A          
1 41877U 16074A   24163.51791595  .00000357  00000+0  18219-3 0  9991
2 41877  98.6454 237.0944 0001786  65.1890 294.9473 14.21666421389770
TANSAT                  
1 41898U 16081A   24163.52596707  .00001436  00000+0  31895-3 0  9995
2 41898  98.4699 134.1946 0022196  63.1424 297.2040 14.58478894397321
JILIN-1 03              
1 41914U 17002B   24163.59251319  .00011291  00000+0  52928-3 0  9992
2 41914  97.2163 180.7999 0007370 281.0193  79.0213 15.19818453409317
KAIDUN 1                
1 41915U 17002C   24163.53999117  .00020795  00000+0  73189-3 0  9993
2 41915  97.2014 191.6288 0005028 241.5175 118.5560 15.29338508410016
CARTOSAT-2D             
1 41948U 17008A   24163.52470600  .00009703  00000+0  46320-3 0  9998
2 41948  97.4252 222.8910 0004627 289.5919  70.4816 15.19249871405881
DIDO-2                  
1 42000U 17008BE  24163.14157556  .00289973  00000+0  10317-2 0  9993
2 42000  97.1272 224.7606 0006005 180.5708 179.5559 15.88207390407840
ZHUHAI-1 02 (CAS-4B)    
1 42759U 17034B   24163.55613151  .00019776  00000+0  71321-3 0  9991
2 42759  43.0163 258.3826 0013040 308.9627  51.0062 15.28102356386546
ZHUHAI-1 01 (CAS-4A)    
1 42761U 17034D   24163.55782593  .00019281  00000+0  69367-3 0  9999
2 42761  43.0207 256.7244 0011803 317.8644  42.1300 15.28210581386543
CARTOSAT-2E             
1 42767U 17036C   24163.47514668  .00009332  00000+0  44388-3 0  9996
2 42767  97.4374 222.9345 0004294  11.8700 348.2635 15.19391148386443
AALTO-1                 
1 42775U 17036L   24163.53749865  .00116949  00000+0  10771-2 0  9992
2 42775  97.1021 193.1002 0006353 187.4691 172.6477 15.67252488388221
URSA MAIOR              
1 42776U 17036M   24163.56605558  .00451677  81042-4  13398-2 0  9994
2 42776  97.0918 197.6274 0008317 192.5462 167.5608 15.92445921388516
MAX VALIER SAT          
1 42778U 17036P   24163.49606692  .00463546  85939-4  13442-2 0  9995
2 42778  97.0798 201.6339 0006925 190.0413 170.0725 15.92902740388688
D-SAT                   
1 42794U 17036AF  24163.53360360  .00006586  00000+0  46064-3 0  9992
2 42794  97.4856 145.6385 0110862 166.5827 193.8388 15.00685710379879
IRIDIUM 113             
1 42803U 17039A   24163.53133260  .00000079  00000+0  21073-4 0  9998
2 42803  86.3966 269.5472 0001954  95.4418 264.7000 14.34216364365740
NORSAT 2                
1 42828U 17042D   24163.52613162  .00010533  00000+0  82015-3 0  9990
2 42828  97.3822 349.9817 0015277  63.1229 297.1555 15.01310626376570
TECHNOSAT               
1 42829U 17042E   24163.56625412  .00005103  00000+0  45196-3 0  9992
2 42829  97.3836 344.9509 0013723  93.8176 266.4616 14.96589769376334
FLYING LAPTOP           
1 42831U 17042G   24163.55994444  .00003100  00000+0  28688-3 0  9990
2 42831  97.3856 344.8316 0014158  95.6975 264.5861 14.95135515376295
WNISAT 1R               
1 42835U 17042L   24163.45221033  .00004330  00000+0  39691-3 0  9992
2 42835  97.3841 344.5973 0013847  93.9082 266.3723 14.95317380376304
LEMUR-2-GREENBERG       
1 42837U 17042N   24163.52489591  .00013250  00000+0  94995-3 0  9996
2 42837  97.3652 352.4952 0016468  56.5232 303.7566 15.04364950376795
LEMUR-2-FURIAUS         
1 42840U 17042R   24163.52406628  .00011005  00000+0  81556-3 0  9995
2 42840  97.3676 352.2735 0015471 101.9695 258.3266 15.03174193376736
CORVUS BC2              
1 42846U 17042X   24163.51038434  .00005352  00000+0  46104-3 0  9994
2 42846  97.3733 348.9298 0009269  80.9908 279.2364 14.97690969376594
CORVUS BC1              
1 42847U 17042Y   24163.47207050  .00006144  00000+0  52634-3 0  9997
2 42847  97.3746 349.2948 0009993  80.5027 279.7325 14.97849774376601
VRSS-2                  
1 42954U 17060A   24163.59229602  .00001898  00000+0  26634-3 0  9998
2 42954  97.7542 219.9994 0017468 343.9687  16.0970 14.78480342359640
MOHAMMED VI-A           
1 43005U 17070A   24163.53351147  .00001747  00000+0  25457-3 0  9996
2 43005  97.9564 235.4082 0001166  99.1053 261.0289 14.77093754355388
FENGYUN 3D              
1 43010U 17072A   24163.52577665  .00000241  00000+0  13638-3 0  9994
2 43010  98.9104 118.1473 0001880  31.4267 328.7021 14.19355725340615
CZ-4C R/B               
1 43012U 17072C   24163.45649817  .00000721  00000+0  15499-3 0  9997
2 43012  98.6005 236.9784 0124181 255.8043 102.9333 14.57325606349414
NOAA 20 (JPSS-1)        
1 43013U 17073A   24163.56243825  .00000195  00000+0  11308-3 0  9990
2 43013  98.7063 101.5782 0000643 141.1223 218.9999 14.19595380340107
MIRATA                  
1 43015U 17073C   24163.56501139  .00024507  00000+0  11594-2 0  9996
2 43015  97.5955  48.3729 0168242 280.2165  78.0127 15.07628831355486
MAKERSAT 0              
1 43016U 17073D   24163.14691294  .00015637  00000+0  89314-3 0  9993
2 43016  97.5815  42.2951 0193656 303.0658  55.2097 14.98238512355014
